NORAD_CAT_ID,OBJECT_NAME,OBJECT_TYPE,EPOCH,MEAN_MOTION,ECCENTRICITY,INCLINATION,RA_OF_ASC_NODE,ARG_OF_PERICENTER,MEAN_ANOMALY,BSTAR,MEAN_MOTION_DOT,MEAN_MOTION_DDOT,TLE_LINE0,TLE_LINE1,TLE_LINE2,SEMIMAJOR_AXIS,PERIOD,APOGEE,PERIGEE,DECAYED
52473.0,STARLINK-3879,PAYLOAD,2024-07-14 11:08:53,15.08843432,0.00013,53.2155,247.1077,88.2967,271.8174,3.3356e-05,2.43e-06,0.0,0 STARLINK-3879,1 52473U 22049Y   24196.46451015  .00000243  00000-0  33356-4 0  9999,2 52473  53.2155 247.1077 0001300  88.2967 271.8174 15.08843432121187,6917.87,95.437,540.634,538.836,0.0
52473.0,STARLINK-3879,PAYLOAD,2024-07-15 03:02:45,15.08837645,0.000133,53.2155,244.1339,91.436,268.6784,0.000148,2.068e-05,0.0,0 STARLINK-3879,1 52473U 22049Y   24197.12691184  .00002068  00000-0  14800-3 0  9995,2 52473  53.2155 244.1339 0001330  91.4360 268.6784 15.08837645121440,6917.888,95.438,540.673,538.833,0.0
52473.0,STARLINK-3879,PAYLOAD,2024-07-15 09:24:17,15.08838423,0.0001323,53.2154,242.9442,91.7162,268.3981,0.00017036,2.424e-05,0.0,0 STARLINK-3879,1 52473U 22049Y   24197.39187248  .00002424  00000-0  17036-3 0  9995,2 52473  53.2154 242.9442 0001323  91.7162 268.3981 15.08838423121323,6917.885,95.438,540.665,538.835,0.0
52473.0,STARLINK-3879,PAYLOAD,2024-07-15 20:32:00,15.08834441,0.0001261,53.2149,240.8623,90.5535,269.5602,4.4602e-05,4.22e-06,0.0,0 STARLINK-3879,1 52473U 22049Y   24197.85555813  .00000422  00000-0  44602-4 0  9999,2 52473  53.2149 240.8623 0001261  90.5535 269.5602 15.08834441121551,6917.897,95.438,540.635,538.89,0.0
52473.0,STARLINK-3879,PAYLOAD,2024-07-16 09:15:05,15.08840464,0.0001318,53.215,238.4829,93.6238,266.4905,6.627e-05,7.67e-06,0.0,0 STARLINK-3879,1 52473U 22049Y   24198.38547526  .00000767  00000-0  66270-4 0  9997,2 52473  53.2150 238.4829 0001318  93.6238 266.4905 15.08840464121476,6917.879,95.438,540.656,538.832,0.0
52473.0,STARLINK-3879,PAYLOAD,2024-07-17 05:55:06,15.0881541,0.0001698,53.2146,234.618,87.7685,272.3502,0.00053673,8.259e-05,0.0,0 STARLINK-3879,1 52473U 22049Y   24199.24659916  .00008259  00000-0  53673-3 0  9996,2 52473  53.2146 234.6180 0001698  87.7685 272.3502 15.08815410121764,6917.956,95.439,540.995,538.646,0.0
52473.0,STARLINK-3879,PAYLOAD,2024-07-17 09:05:51,15.08856467,0.0001299,53.2148,234.0225,91.1111,269.003,-9.4653e-06,-4.39e-06,0.0,0 STARLINK-3879,1 52473U 22049Y   24199.37906622 -.00000439  00000-0 -94653-5 0  9998,2 52473  53.2148 234.0225 0001299  91.1111 269.0030 15.08856467121788,6917.83,95.437,540.594,538.796,0.0
52473.0,STARLINK-3879,PAYLOAD,2024-07-18 08:56:39,15.08839334,0.0001427,53.2157,229.5594,93.4835,266.6321,8.5576e-05,1.074e-05,0.0,0 STARLINK-3879,1 52473U 22049Y   24200.37267801  .00001074  00000-0  85576-4 0  9997,2 52473  53.2157 229.5594 0001427  93.4835 266.6321 15.08839334121934,6917.882,95.438,540.735,538.76,0.0
52473.0,STARLINK-3879,PAYLOAD,2024-07-18 18:28:58,15.08840805,0.0001343,53.2155,227.7752,88.9809,271.1337,4.363e-05,4.07e-06,0.0,0 STARLINK-3879,1 52473U 22049Y   24200.77011821  .00000407  00000-0  43630-4 0  9994,2 52473  53.2155 227.7752 0001343  88.9809 271.1337 15.08840805121837,6917.878,95.438,540.672,538.814,0.0
52473.0,STARLINK-3879,PAYLOAD,2024-07-19 08:47:26,15.08839416,0.0001385,53.216,225.1033,97.8456,262.2693,-1.8683e-05,-5.85e-06,0.0,0 STARLINK-3879,1 52473U 22049Y   24201.36628208 -.00000585  00000-0 -18683-4 0  9992,2 52473  53.2160 225.1033 0001385  97.8456 262.2693 15.08839416121922,6917.882,95.438,540.705,538.789,0.0
52473.0,STARLINK-3879,PAYLOAD,2024-07-19 18:19:45,15.08840711,0.0001388,53.2161,223.3188,97.4008,262.7142,-2.0621e-06,-3.21e-06,0.0,0 STARLINK-3879,1 52473U 22049Y   24201.76372038 -.00000321  00000-0 -20621-5 0  9997,2 52473  53.2161 223.3188 0001388  97.4008 262.7142 15.08840711122145,6917.878,95.438,540.703,538.783,0.0
52473.0,STARLINK-3879,PAYLOAD,2024-07-20 10:13:36,15.088423,0.0001352,53.2159,220.3449,100.5082,259.6063,0.00012815,1.752e-05,0.0,0 STARLINK-3879,1 52473U 22049Y   24202.42611763  .00001752  00000-0  12815-3 0  9993,2 52473  53.2159 220.3449 0001352 100.5082 259.6063 15.08842300122084,6917.873,95.437,540.674,538.803,0.0
52473.0,STARLINK-3879,PAYLOAD,2024-07-20 18:10:32,15.08837575,0.0001363,53.216,218.8582,100.1861,259.9285,9.2435e-05,1.183e-05,0.0,0 STARLINK-3879,1 52473U 22049Y   24202.75732252  .00001183  00000-0  92435-4 0  9991,2 52473  53.2160 218.8582 0001363 100.1861 259.9285 15.08837575122132,6917.888,95.438,540.696,538.81,0.0
52473.0,STARLINK-3879,PAYLOAD,2024-07-21 05:18:14,15.08834082,0.0001344,53.2156,216.7759,94.9684,265.1461,8.3004e-05,1.033e-05,0.0,0 STARLINK-3879,1 52473U 22049Y   24203.22100650  .00001033  00000-0  83004-4 0  9991,2 52473  53.2156 216.7759 0001344  94.9684 265.1461 15.08834082122362,6917.898,95.438,540.693,538.834,0.0
52473.0,STARLINK-3879,PAYLOAD,2024-07-21 10:04:24,15.08837843,0.0001368,53.2155,215.8837,93.8491,266.2658,0.00010558,1.393e-05,0.0,0 STARLINK-3879,1 52473U 22049Y   24203.41972413  .00001393  00000-0  10558-3 0  9998,2 52473  53.2155 215.8837 0001368  93.8491 266.2658 15.08837843122232,6917.887,95.438,540.698,538.806,0.0
52473.0,STARLINK-3879,PAYLOAD,2024-07-22 09:55:11,15.0884208,0.0001566,53.2164,211.4183,82.0248,278.0922,4.0761e-05,3.61e-06,0.0,0 STARLINK-3879,1 52473U 22049Y   24204.41332398  .00000361  00000-0  40761-4 0  9995,2 52473  53.2164 211.4183 0001566  82.0248 278.0922 15.08842080122546,6917.874,95.437,540.822,538.656,0.0
52473.0,STARLINK-3879,PAYLOAD,2024-07-23 00:13:39,15.0884272,0.0001479,53.2157,208.7436,84.467,275.6491,0.00012226,1.658e-05,0.0,0 STARLINK-3879,1 52473U 22049Y   24205.00948107  .00001658  00000-0  12226-3 0  9996,2 52473  53.2157 208.7436 0001479  84.4670 275.6491 15.08842720122473,6917.872,95.437,540.76,538.714,0.0
52473.0,STARLINK-3879,PAYLOAD,2024-07-24 04:50:36,15.0883717,0.0001339,53.2157,203.3941,86.5376,273.5769,-1.5422e-05,-5.33e-06,0.0,0 STARLINK-3879,1 52473U 22049Y   24206.20180728 -.00000533  00000-0 -15422-4 0  9991,2 52473  53.2157 203.3941 0001339  86.5376 273.5769 15.08837170122812,6917.889,95.438,540.68,538.828,0.0
52473.0,STARLINK-3879,PAYLOAD,2024-07-24 06:25:59,15.08837016,0.000134,53.2157,203.0967,86.4189,273.6957,-1.8183e-05,-5.77e-06,0.0,0 STARLINK-3879,1 52473U 22049Y   24206.26804736 -.00000577  00000-0 -18183-4 0  9994,2 52473  53.2157 203.0967 0001340  86.4189 273.6957 15.08837016122662,6917.89,95.438,540.682,538.828,0.0
52473.0,STARLINK-3879,PAYLOAD,2024-07-25 04:41:22,15.08841195,0.0001288,53.2158,198.9339,83.4458,276.6681,1.3957e-05,-6.6e-07,0.0,0 STARLINK-3879,1 52473U 22049Y   24207.19540370 -.00000066  00000-0  13957-4 0  9994,2 52473  53.2158 198.9339 0001288  83.4458 276.6681 15.08841195122801,6917.877,95.437,540.633,538.851,0.0
52473.0,STARLINK-3879,PAYLOAD,2024-07-26 09:18:19,15.08839267,0.0001314,53.2152,193.5783,102.9989,257.115,0.00010102,1.32e-05,0.0,0 STARLINK-3879,1 52473U 22049Y   24208.38772207  .00001320  00000-0  10102-3 0  9993,2 52473  53.2152 193.5783 0001314 102.9989 257.1150 15.08839267123145,6917.883,95.438,540.657,538.839,0.0
52473.0,STARLINK-3879,PAYLOAD,2024-07-26 15:39:51,15.08839809,0.0001198,53.2147,192.3896,92.2258,267.8872,8.4392e-05,1.055e-05,0.0,0 STARLINK-3879,1 52473U 22049Y   24208.65268247  .00001055  00000-0  84392-4 0  9995,2 52473  53.2147 192.3896 0001198  92.2258 267.8872 15.08839809123029,6917.881,95.438,540.575,538.917,0.0
52473.0,STARLINK-3879,PAYLOAD,2024-07-27 05:58:20,15.08839386,0.0001457,53.2159,189.7146,98.247,261.8688,4.406e-05,4.13e-06,0.0,0 STARLINK-3879,1 52473U 22049Y   24209.24884513  .00000413  00000-0  44060-4 0  9996,2 52473  53.2159 189.7146 0001457  98.2470 261.8688 15.08839386123119,6917.882,95.438,540.755,538.739,0.0
52473.0,STARLINK-3879,PAYLOAD,2024-07-27 09:09:06,15.08841442,0.0001438,53.2158,189.1196,97.4638,262.6518,5.7961e-05,6.35e-06,0.0,0 STARLINK-3879,1 52473U 22049Y   24209.38132331  .00000635  00000-0  57961-4 0  9995,2 52473  53.2158 189.1196 0001438  97.4638 262.6518 15.08841442123132,6917.876,95.437,540.736,538.746,0.0
52473.0,STARLINK-3879,PAYLOAD,2024-07-28 05:49:07,15.08833359,0.0001638,53.2169,185.2526,99.0677,261.05,-2.3838e-06,-3.26e-06,0.0,0 STARLINK-3879,1 52473U 22049Y   24210.24245337 -.00000326  00000-0 -23838-5 0  9999,2 52473  53.2169 185.2526 0001638  99.0677 261.0500 15.08833359123425,6917.901,95.438,540.899,538.633,0.0
52473.0,STARLINK-3879,PAYLOAD,2024-07-29 05:39:54,15.08840984,0.0001677,53.217,180.789,71.6197,288.4977,7.1789e-05,8.55e-06,0.0,0 STARLINK-3879,1 52473U 22049Y   24211.23604956  .00000855  00000-0  71789-4 0  9997,2 52473  53.2170 180.7890 0001677  71.6197 288.4977 15.08840984123576,6917.877,95.437,540.903,538.582,0.0
52473.0,STARLINK-3879,PAYLOAD,2024-07-29 21:33:46,15.08837136,0.0001516,53.2163,177.8212,78.3681,281.7481,0.00011025,1.467e-05,0.0,0 STARLINK-3879,1 52473U 22049Y   24211.89845130  .00001467  00000-0  11025-3 0  9996,2 52473  53.2163 177.8212 0001516  78.3681 281.7481 15.08837136123512,6917.889,95.438,540.803,538.705,0.0
52473.0,STARLINK-3879,PAYLOAD,2024-07-30 05:30:41,15.08842157,0.0001451,53.2159,176.3331,82.971,277.1447,0.00010518,1.386e-05,0.0,0 STARLINK-3879,1 52473U 22049Y   24212.22964860  .00001386  00000-0  10518-3 0  9992,2 52473  53.2159 176.3331 0001451  82.9710 277.1447 15.08842157123560,6917.874,95.437,540.743,538.735,0.0
52473.0,STARLINK-3879,PAYLOAD,2024-07-30 21:24:32,15.08846297,0.000151,53.2161,173.3606,81.4679,278.6484,5.3395e-05,5.62e-06,0.0,0 STARLINK-3879,1 52473U 22049Y   24212.89204715  .00000562  00000-0  53395-4 0  9997,2 52473  53.2161 173.3606 0001510  81.4679 278.6484 15.08846297123824,6917.861,95.437,540.771,538.682,0.0
52473.0,STARLINK-3879,PAYLOAD,2024-07-31 03:46:04,15.08853947,0.0001486,53.2163,172.1692,91.992,268.1242,8.703e-05,1.098e-05,0.0,0 STARLINK-3879,1 52473U 22049Y   24213.15699956  .00001098  00000-0  87030-4 0  9990,2 52473  53.2163 172.1692 0001486  91.9920 268.1242 15.08853947123708,6917.838,95.437,540.731,538.675,0.0
